{
  "type": "FeatureCollection",
  "features": [
    {
      "type": "Feature",
      "properties": {
        "name": "CART Delivery Coverage — Cairo & Fifth Settlement, Egypt"
      },
      "geometry": {
        "type": "MultiPolygon",
        "coordinates": [
          [
            [
              [31.1800, 30.1050],
              [31.2500, 30.1200],
              [31.3200, 30.1400],
              [31.3800, 30.1600],
              [31.4200, 30.1500],
              [31.4500, 30.1200],
              [31.4800, 30.0800],
              [31.4600, 30.0400],
              [31.4200, 30.0000],
              [31.3800, 29.9700],
              [31.3200, 29.9600],
              [31.2500, 29.9700],
              [31.2000, 30.0000],
              [31.1800, 30.0400],
              [31.1600, 30.0700],
              [31.1800, 30.1050]
            ]
          ],
          [
            [
              [31.4800, 30.0800],
              [31.5400, 30.0900],
              [31.6000, 30.0800],
              [31.6500, 30.0500],
              [31.6700, 30.0000],
              [31.6500, 29.9600],
              [31.6000, 29.9300],
              [31.5400, 29.9200],
              [31.4800, 29.9400],
              [31.4400, 29.9700],
              [31.4200, 30.0000],
              [31.4600, 30.0400],
              [31.4800, 30.0800]
            ]
          ]
        ]
      }
    }
  ]
}
